Station Name,Station Complex,Lines,Historical,Borough,County,Latitude,Longitude,WiFi Available,AT&T,Sprint,T-Mobile,Verizon,Location,Counties,New York Zip Codes,NYS Municipal Boundaries
96 St,96 St (Q),Q,No,Manhattan,New York County,40.784267,-73.947114,No,No,No,No,No,"{'latitude': '40.784267', 'longitude': '-73.947114'}",2095,583,749
174th St,"174-175 Sts (B,D)",BD,No,Bronx,Bronx County,40.8459,-73.910136,No,Yes,Yes,Yes,Yes,"{'latitude': '40.8459', 'longitude': '-73.910136'}",2032,649,307
207th St,Inwood-207 St (A),A,No,Manhattan,New York County,40.868072,-73.919899,No,Yes,Yes,Yes,Yes,"{'latitude': '40.868072', 'longitude': '-73.919899'}",2095,793,749
72nd St,"72 St (1,2,3)",123,Yes,Manhattan,New York County,40.778453,-73.98197,No,Yes,Yes,Yes,Yes,"{'latitude': '40.778453', 'longitude': '-73.98197'}",2095,750,749
Cypress Avenue,Cypress Av (6),6,No,Bronx,Bronx County,40.805368,-73.914042,No,Yes,Yes,Yes,Yes,"{'latitude': '40.805368', 'longitude': '-73.914042'}",2032,650,307
Times Square,"Times Sq-42 St (N,Q,R,S,W,1,2,3,7)/42 St (A,C,E)",123,Yes,Manhattan,New York County,40.75529,-73.987495,No,Yes,Yes,Yes,Yes,"{'latitude': '40.75529', 'longitude': '-73.987495'}",2095,741,749
Lexington Ave,Lexington Av-53 St (E)/51 St (6),E,No,Manhattan,New York County,40.757552,-73.969055,No,No,Yes,No,No,"{'latitude': '40.757552', 'longitude': '-73.969055'}",2095,749,749
46th St,"46 St (M,R)",MR,No,Queens,Queens County,40.756312,-73.913333,No,Yes,Yes,Yes,Yes,"{'latitude': '40.756312', 'longitude': '-73.913333'}",2137,875,196
High St,"High St (A,C)",AC,No,Brooklyn,Kings County,40.699337,-73.990531,No,No,No,No,No,"{'latitude': '40.699337', 'longitude': '-73.990531'}",2095,880,894
Grand St.,"Grand St (B,D)",BD,No,Manhattan,New York County,40.718267,-73.993753,No,No,Yes,No,No,"{'latitude': '40.718267', 'longitude': '-73.993753'}",2095,718,749
86th St,"86 St (4,5,6)",456,Yes,Manhattan,New York County,40.779492,-73.955589,No,Yes,Yes,Yes,Yes,"{'latitude': '40.779492', 'longitude': '-73.955589'}",2095,755,749
145th St,145 St (1),1,No,Manhattan,New York County,40.826551,-73.95036,No,Yes,Yes,Yes,Yes,"{'latitude': '40.826551', 'longitude': '-73.95036'}",2095,758,749
Bedford Ave,Bedford Av (L),L,No,Brooklyn,Kings County,40.717304,-73.956872,No,No,Yes,No,No,"{'latitude': '40.717304', 'longitude': '-73.956872'}",2090,889,894
Steinway St,"Steinway St (M,R)",MR,No,Queens,Queens County,40.756879,-73.92074,No,Yes,Yes,Yes,Yes,"{'latitude': '40.756879', 'longitude': '-73.92074'}",2137,875,196
Bedford/Nostrand,Bedford-Nostrand Avs (G),G,No,Brooklyn,Kings County,40.689627,-73.953522,No,No,No,No,No,"{'latitude': '40.689627', 'longitude': '-73.953522'}",2090,883,894
145th St,145 St (3),23,Yes,Manhattan,New York County,40.820421,-73.936245,No,Yes,Yes,Yes,Yes,"{'latitude': '40.820421', 'longitude': '-73.936245'}",2095,798,749
Fulton St,Fulton St (G),G,No,Brooklyn,Kings County,40.687119,-73.975375,No,No,No,No,No,"{'latitude': '40.687119', 'longitude': '-73.975375'}",2090,895,894
116th St,116 St (6),6,No,Manhattan,New York County,40.798629,-73.941617,No,Yes,Yes,Yes,Yes,"{'latitude': '40.798629', 'longitude': '-73.941617'}",2095,756,749
Fulton St,"Fulton St (J,M,Z,2,3,4,5)/Bway-Nassau St (A,C)",23,No,Manhattan,New York County,40.709416,-74.006571,No,Yes,Yes,Yes,Yes,"{'latitude': '40.709416', 'longitude': '-74.006571'}",2095,797,749
Dekalb Ave,"DeKalb Av (B,M,Q,R)",BMQR,No,Brooklyn,Kings County,40.690635,-73.981824,No,No,No,No,No,"{'latitude': '40.690635', 'longitude': '-73.981824'}",2090,880,894
Queens Plaza,"Queens Plaza (E,M,R)",EMR,No,Queens,Queens County,40.748973,-73.937243,No,Yes,Yes,Yes,Yes,"{'latitude': '40.748973', 'longitude': '-73.937243'}",2137,873,196
Jay St-Boro Hall / PBX2,"Jay St-Borough Hall (A,C,F)",ACF,No,Brooklyn,Kings County,40.692338,-73.987342,No,No,No,No,No,"{'latitude': '40.692338', 'longitude': '-73.987342'}",2090,880,894
Hunts Point Avenue,Hunts Point Av (6),6,No,Bronx,Bronx County,40.820948,-73.890549,No,Yes,Yes,Yes,Yes,"{'latitude': '40.820948', 'longitude': '-73.890549'}",2032,655,307
Rector St,Rector St (1),1,No,Manhattan,New York County,40.707513,-74.013783,No,No,Yes,No,No,"{'latitude': '40.707513', 'longitude': '-74.013783'}",2095,722,749
Ralph Ave,Ralph Av (C),AC,No,Brooklyn,Kings County,40.678822,-73.920786,No,No,No,No,No,"{'latitude': '40.678822', 'longitude': '-73.920786'}",2090,816,894
110th St,Cathedral Pkwy-110 St (1),1,Yes,Manhattan,New York County,40.803967,-73.966847,No,Yes,Yes,Yes,Yes,"{'latitude': '40.803967', 'longitude': '-73.966847'}",2095,752,749
50th St,50 St (1),1,No,Manhattan,New York County,40.761728,-73.983849,No,Yes,Yes,Yes,Yes,"{'latitude': '40.761728', 'longitude': '-73.983849'}",2095,742,749
191st St,191 St (1),1,No,Manhattan,New York County,40.855225,-73.929412,No,Yes,Yes,Yes,Yes,"{'latitude': '40.855225', 'longitude': '-73.929412'}",2095,799,749
138th St,"138 St-Grand Concourse (4,5)",4,No,Bronx,Bronx County,40.813224,-73.929849,No,Yes,Yes,Yes,Yes,"{'latitude': '40.813224', 'longitude': '-73.929849'}",2095,647,307
President St,"President St (2,5)",25,No,Brooklyn,Kings County,40.667883,-73.950683,No,No,No,No,No,"{'latitude': '40.667883', 'longitude': '-73.950683'}",2090,809,894
Astor Place,Astor Place (6),6,Yes,Manhattan,New York County,40.730054,-73.99107,No,No,Yes,No,No,"{'latitude': '40.730054', 'longitude': '-73.99107'}",2095,719,749
47-50 St Rock Ctr,"47-50 Sts-Rockefeller Center (B,D,F,M)",BDFM,No,Manhattan,New York County,40.758663,-73.981329,No,Yes,Yes,Yes,Yes,"{'latitude': '40.758663', 'longitude': '-73.981329'}",2095,743,749
28th St,28 St (6),6,Yes,Manhattan,New York County,40.74307,-73.984264,No,Yes,Yes,Yes,Yes,"{'latitude': '40.74307', 'longitude': '-73.984264'}",2095,739,749
65th St,"65 St (M,R)",MR,No,Queens,Queens County,40.749669,-73.898453,No,Yes,Yes,Yes,Yes,"{'latitude': '40.749669', 'longitude': '-73.898453'}",2137,846,196
Sutphin Blvd,"Sutphin Blvd-Archer Av-JFK Airport (E,J,Z)",EJZ,No,Queens,Queens County,40.700486,-73.807969,No,Yes,Yes,Yes,Yes,"{'latitude': '40.700486', 'longitude': '-73.807969'}",2137,1262,196
Union Turnpike,"Kew Gardens-Union Turnpike (E,F)",EF,No,Queens,Queens County,40.714441,-73.831008,No,Yes,Yes,Yes,Yes,"{'latitude': '40.714441', 'longitude': '-73.831008'}",2137,845,196
2nd Ave,Lower East Side-2 Av (F),F,No,Manhattan,New York County,40.723402,-73.989938,No,Yes,Yes,Yes,Yes,"{'latitude': '40.723402', 'longitude': '-73.989938'}",2095,719,749
125th St,"125 St (4,5,6)",6,No,Manhattan,New York County,40.804138,-73.937594,No,Yes,Yes,Yes,Yes,"{'latitude': '40.804138', 'longitude': '-73.937594'}",2095,794,749
34 St,34 St - Hudson Yards (7),7,No,Manhattan,New York County,40.7558389,-74.0019611,No,No,No,No,No,"{'latitude': '40.7558389', 'longitude': '-74.0019611'}",2095,717,749
Clark St,"Clark St (2,3)",23,No,Brooklyn,Kings County,40.697466,-73.993086,No,No,No,No,No,"{'latitude': '40.697466', 'longitude': '-73.993086'}",2095,880,894
Clinton-Washington,Clinton-Washington Avs (G),G,No,Brooklyn,Kings County,40.688089,-73.966839,No,No,No,No,No,"{'latitude': '40.688089', 'longitude': '-73.966839'}",2090,821,894
59th St,"59 St-Columbus Circle (A,B,C,D,1)",ABCD,No,Manhattan,New York County,40.768296,-73.981736,No,Yes,Yes,Yes,Yes,"{'latitude': '40.768296', 'longitude': '-73.981736'}",2095,,749
Broadwav-Lafayette,"Broadway-Lafayette St (B,D,F)/Bleecker St (6)",FV,No,Manhattan,New York County,40.725297,-73.996204,No,No,Yes,No,No,"{'latitude': '40.725297', 'longitude': '-73.996204'}",2095,736,749
Vernon-Jackson,Vernon Blvd-Jackson Av (7),7,No,Queens,Queens County,40.742626,-73.953581,No,Yes,Yes,Yes,Yes,"{'latitude': '40.742626', 'longitude': '-73.953581'}",2137,873,196
59th St,"Lexington Av (N,R,W)/59 St (4,5,6)",456,No,Manhattan,New York County,40.762526,-73.967967,No,Yes,Yes,No,Yes,"{'latitude': '40.762526', 'longitude': '-73.967967'}",2095,749,749
182nd-183rd Sr,"182-183 Sts (B,D)",BD,No,Bronx,Bronx County,40.856093,-73.900741,No,Yes,Yes,Yes,Yes,"{'latitude': '40.856093', 'longitude': '-73.900741'}",2032,653,307
Longwood Avenue,Longwood Av (6),6,No,Bronx,Bronx County,40.816104,-73.896435,No,Yes,Yes,Yes,Yes,"{'latitude': '40.816104', 'longitude': '-73.896435'}",2032,651,307
W. 4th St,"West 4 St (A,B,C,D,E,F)",ABCDEF,Yes,Manhattan,New York County,40.732338,-74.000495,No,No,Yes,No,No,"{'latitude': '40.732338', 'longitude': '-74.000495'}",2095,735,749
Church Ave,Church Av (F),F,No,Brooklyn,New York County,40.644041,-73.979678,No,No,No,No,No,"{'latitude': '40.644041', 'longitude': '-73.979678'}",2090,896,894
Bowery,"Bowery (J,M,Z)",JMZ,No,Manhattan,New York County,40.72028,-73.993915,No,No,Yes,No,No,"{'latitude': '40.72028', 'longitude': '-73.993915'}",2095,718,749
Grand St,Grand St (L),L,No,Brooklyn,Kings County,40.711926,-73.94067,No,No,No,No,No,"{'latitude': '40.711926', 'longitude': '-73.94067'}",2090,889,894
Greenpoint Ave,Greenpoint Av (G),G,No,Brooklyn,Kings County,40.731352,-73.954449,No,Yes,Yes,No,Yes,"{'latitude': '40.731352', 'longitude': '-73.954449'}",2090,901,894
Utica Ave,"Utica Av (A,C)",AC,No,Brooklyn,Kings County,40.679364,-73.930729,No,No,No,No,No,"{'latitude': '40.679364', 'longitude': '-73.930729'}",2090,891,894
96th St,96 St (6),6,No,Manhattan,New York County,40.785672,-73.95107,No,Yes,Yes,Yes,Yes,"{'latitude': '40.785672', 'longitude': '-73.95107'}",2095,583,749
28th St,"28 St (N,R,W)",R,No,Manhattan,New York County,40.745494,-73.988691,No,Yes,Yes,Yes,Yes,"{'latitude': '40.745494', 'longitude': '-73.988691'}",2095,717,749
York St,York St (F),F,No,Brooklyn,Kings County,40.699743,-73.986885,No,No,No,No,No,"{'latitude': '40.699743', 'longitude': '-73.986885'}",2090,880,894
Pacific St,"Atlantic Av (B,Q,2,3,4,5)/Pacific St (D,M,N,R)",DMNR,No,Brooklyn,Kings County,40.683666,-73.97881,No,No,No,No,No,"{'latitude': '40.683666', 'longitude': '-73.97881'}",2090,895,894
Ft. Hamilton Pky,Fort Hamilton Pkwy (F),F,No,Brooklyn,New York County,40.650782,-73.975776,No,No,No,No,No,"{'latitude': '40.650782', 'longitude': '-73.975776'}",2090,896,894
Union Square,"14 St-Union Square (L,N,Q,R,4,5,6)",L,Yes,Manhattan,New York County,40.734789,-73.99073,No,No,No,No,No,"{'latitude': '40.734789', 'longitude': '-73.99073'}",2095,719,749
23rdSt,"23 St (F,M)",FM,No,Manhattan,New York County,40.742878,-73.992821,No,Yes,Yes,Yes,Yes,"{'latitude': '40.742878', 'longitude': '-73.992821'}",2095,734,749
East Broadway,East Broadway (F),F,No,Manhattan,New York County,40.713715,-73.990173,No,Yes,Yes,Yes,Yes,"{'latitude': '40.713715', 'longitude': '-73.990173'}",2095,718,749
Woodhaven Blvd,"Woodhaven Blvd (M,R)",MR,No,Queens,Queens County,40.733106,-73.869229,No,Yes,Yes,Yes,Yes,"{'latitude': '40.733106', 'longitude': '-73.869229'}",2137,843,196
34th St,"34 St-Penn Station (1,2,3)",123,No,Manhattan,New York County,40.750373,-73.991057,No,No,No,No,No,"{'latitude': '40.750373', 'longitude': '-73.991057'}",2095,717,749
45th St,45 St (R),R,No,Brooklyn,Kings County,40.648939,-74.010006,No,No,No,No,No,"{'latitude': '40.648939', 'longitude': '-74.010006'}",2090,899,894
Nostrand Ave,"Nostrand Av (A,C)",AC,No,Brooklyn,Kings County,40.680438,-73.950426,No,No,No,No,No,"{'latitude': '40.680438', 'longitude': '-73.950426'}",2090,894,894
66th St,66 St-Lincoln Center (1),1,No,Manhattan,New York County,40.77344,-73.982209,No,Yes,Yes,Yes,Yes,"{'latitude': '40.77344', 'longitude': '-73.982209'}",2095,750,749
14 St,"8 Av & 14 St (A,C,E,L)",ACE,No,Manhattan,New York County,40.740893,-74.00169,No,Yes,Yes,Yes,Yes,"{'latitude': '40.740893', 'longitude': '-74.00169'}",2095,735,749
Times Square,"Times Sq-42 St (N,Q,R,S,W,1,2,3,7)/42 St (A,C,E)",S,Yes,Manhattan,New York County,40.755983,-73.986229,No,Yes,Yes,Yes,Yes,"{'latitude': '40.755983', 'longitude': '-73.986229'}",2095,795,749
Halsey St,Halsey St (L),L,No,Brooklyn,Kings County,40.695602,-73.904084,No,No,No,No,No,"{'latitude': '40.695602', 'longitude': '-73.904084'}",2090,849,196
77th St,77 St (R),R,No,Brooklyn,Kings County,40.629742,-74.02551,No,No,No,No,No,"{'latitude': '40.629742', 'longitude': '-74.02551'}",2090,887,894
138th St-3rd Ave,3 Av-138 St (6),6,No,Bronx,Bronx County,40.810476,-73.926138,No,Yes,Yes,Yes,Yes,"{'latitude': '40.810476', 'longitude': '-73.926138'}",2095,650,307
Hoyt St,"Hoyt St (2,3)",23,No,Brooklyn,Kings County,40.690545,-73.985065,No,No,No,No,No,"{'latitude': '40.690545', 'longitude': '-73.985065'}",2090,880,894
86th St,86 St (1),1,No,Manhattan,New York County,40.788644,-73.976218,No,Yes,Yes,Yes,Yes,"{'latitude': '40.788644', 'longitude': '-73.976218'}",2095,751,749
Borough Hall,"Court St (M,R)/Borough Hall (2,3,4,5)",23,Yes,Brooklyn,Kings County,40.692404,-73.990151,No,No,No,No,No,"{'latitude': '40.692404', 'longitude': '-73.990151'}",2090,880,894
Fordham Rd,"Fordham Rd (B,D)",BD,No,Bronx,Bronx County,40.861296,-73.897749,No,Yes,Yes,Yes,Yes,"{'latitude': '40.861296', 'longitude': '-73.897749'}",2032,654,307
Prospect Park-15th St,15 St-Prospect Park (F),F,Yes,Brooklyn,New York County,40.660365,-73.979493,No,No,No,No,No,"{'latitude': '40.660365', 'longitude': '-73.979493'}",2090,893,894
Broad ST,"Broad St (J,Z)",JZ,No,Manhattan,New York County,40.706476,-74.011056,No,No,Yes,No,No,"{'latitude': '40.706476', 'longitude': '-74.011056'}",2095,721,749
Nassau Ave,Nassau Av (G),G,No,Brooklyn,Kings County,40.724635,-73.951277,No,Yes,Yes,No,Yes,"{'latitude': '40.724635', 'longitude': '-73.951277'}",2090,901,894
,Botanic Garden (S),S,No,Brooklyn,Kings County,,,No,No,No,No,No,,,,
59th St,"59 St (N,R)",NR,No,Brooklyn,Kings County,40.641362,-74.017881,No,No,No,No,No,"{'latitude': '40.641362', 'longitude': '-74.017881'}",2090,899,894
163rd St,163 St-Amsterdam Av (C),C,No,Manhattan,New York County,40.836013,-73.939892,No,Yes,Yes,Yes,Yes,"{'latitude': '40.836013', 'longitude': '-73.939892'}",2095,791,749
3rd Ave,3 Av (L),L,No,Manhattan,New York County,40.732849,-73.986122,No,No,Yes,No,No,"{'latitude': '40.732849', 'longitude': '-73.986122'}",2095,719,749
Roosevelt Ave,"74-Bway (7)/Jackson Hts-Roosevelt Av (E,F,M,R)",EFMR,No,Queens,Queens County,40.746644,-73.891338,No,Yes,Yes,Yes,Yes,"{'latitude': '40.746644', 'longitude': '-73.891338'}",2137,843,196
Essex St,"Delancey St (F)/Essex St (J,M,Z)",JMZ,No,Manhattan,New York County,40.718315,-73.987437,No,Yes,Yes,Yes,Yes,"{'latitude': '40.718315', 'longitude': '-73.987437'}",2095,718,749
Canal St,"Canal St (A,C,E)",ACE,No,Manhattan,New York County,40.720824,-74.005229,No,No,Yes,No,No,"{'latitude': '40.720824', 'longitude': '-74.005229'}",2095,737,749
Canal St,"Canal St (J,M,N,Q,R,Z,6)",JMZ,No,Manhattan,New York County,40.718092,-73.999892,No,No,Yes,No,No,"{'latitude': '40.718092', 'longitude': '-73.999892'}",2095,737,749
Jefferson St,Jefferson St (L),L,No,Brooklyn,Kings County,40.706607,-73.922913,No,No,No,No,No,"{'latitude': '40.706607', 'longitude': '-73.922913'}",2090,820,894
49th St,"49 St (N,R,W)",NR,No,Manhattan,New York County,40.759901,-73.984139,No,Yes,Yes,Yes,Yes,"{'latitude': '40.759901', 'longitude': '-73.984139'}",2095,742,749
181st St.,181 St (A),A,Yes,Manhattan,New York County,40.851695,-73.937969,No,Yes,Yes,Yes,Yes,"{'latitude': '40.851695', 'longitude': '-73.937969'}",2095,792,749
168th St,"168 St-Washington Heights (A,C,1)",AC,No,Manhattan,New York County,40.840719,-73.939561,No,No,No,No,No,"{'latitude': '40.840719', 'longitude': '-73.939561'}",2095,791,749
149th S. Grand Concourse (LL),"149 St-Grand Concourse (2,4,5)",25,Yes,Bronx,Bronx County,40.81841,-73.926718,No,Yes,Yes,No,Yes,"{'latitude': '40.81841', 'longitude': '-73.926718'}",2095,647,307
1st Ave,1 Av (L),L,No,Manhattan,New York County,40.730953,-73.981628,No,No,Yes,No,No,"{'latitude': '40.730953', 'longitude': '-73.981628'}",2095,724,749
Carroll St,"Carroll St (F,G)",FG,No,Brooklyn,Kings County,40.680303,-73.995048,No,No,No,No,No,"{'latitude': '40.680303', 'longitude': '-73.995048'}",2090,814,894
175th St,175 St (A),A,No,Manhattan,New York County,40.847391,-73.939704,No,Yes,Yes,Yes,Yes,"{'latitude': '40.847391', 'longitude': '-73.939704'}",2095,792,749
145th St mezzanine,"145 St (A,B,C,D)",ABCD,No,Manhattan,New York County,40.824783,-73.944216,No,Yes,Yes,Yes,Yes,"{'latitude': '40.824783', 'longitude': '-73.944216'}",2095,758,749
36th St,"36 St (M,R)",MR,No,Queens,Queens County,40.752039,-73.928781,No,Yes,Yes,Yes,Yes,"{'latitude': '40.752039', 'longitude': '-73.928781'}",2137,873,196
28th St,28 St (1),1,Yes,Manhattan,New York County,40.747215,-73.993365,No,Yes,Yes,Yes,Yes,"{'latitude': '40.747215', 'longitude': '-73.993365'}",2095,717,749
Montrose Ave,Montrose Av (L),L,No,Brooklyn,Kings County,40.707739,-73.93985,No,No,No,No,No,"{'latitude': '40.707739', 'longitude': '-73.93985'}",2090,884,894
68th St,68 St-Hunter College (6),6,No,Manhattan,New York County,40.768141,-73.96387,No,Yes,Yes,Yes,Yes,"{'latitude': '40.768141', 'longitude': '-73.96387'}",2095,,749
205th St,Norwood-205 St (D),D,No,Bronx,Bronx County,40.874811,-73.878855,No,Yes,Yes,Yes,Yes,"{'latitude': '40.874811', 'longitude': '-73.878855'}",2032,704,307
135th St,"135 St (B,C)",BC,No,Manhattan,New York County,40.817894,-73.947649,No,Yes,Yes,Yes,Yes,"{'latitude': '40.817894', 'longitude': '-73.947649'}",2095,757,749
East 149th St,East 149 St (6),6,No,Bronx,Bronx County,40.812118,-73.904098,No,Yes,Yes,Yes,Yes,"{'latitude': '40.812118', 'longitude': '-73.904098'}",2032,651,307
Grand Ave,"Grand Av-Newtown (M,R)",MR,No,Queens,Queens County,40.737015,-73.877223,No,Yes,Yes,Yes,Yes,"{'latitude': '40.737015', 'longitude': '-73.877223'}",2137,843,196
116th St,"116 St (2,3)",23,No,Manhattan,New York County,40.802098,-73.949625,No,Yes,Yes,Yes,Yes,"{'latitude': '40.802098', 'longitude': '-73.949625'}",2095,753,749
Spring St.,"Spring St (C,E)",CE,No,Manhattan,New York County,40.726227,-74.003739,No,No,Yes,No,No,"{'latitude': '40.726227', 'longitude': '-74.003739'}",2095,736,749
57th St,"Midtown-57 St-7 Av (N,Q,R,W)",NQR,No,Manhattan,New York County,40.764664,-73.980658,No,Yes,Yes,Yes,Yes,"{'latitude': '40.764664', 'longitude': '-73.980658'}",2095,742,749
23rd St,23 St (6),6,No,Manhattan,New York County,40.739864,-73.986599,No,Yes,Yes,Yes,Yes,"{'latitude': '40.739864', 'longitude': '-73.986599'}",2095,734,749
14 St,"6 Av & 14 St (1,2,3,F,M,L)",FM,No,Manhattan,New York County,40.738228,-73.996209,No,Yes,Yes,Yes,Yes,"{'latitude': '40.738228', 'longitude': '-73.996209'}",2095,735,749
Hunters Point,Hunters Point Av (7),7,No,Queens,Queens County,40.742216,-73.948916,No,Yes,Yes,Yes,Yes,"{'latitude': '40.742216', 'longitude': '-73.948916'}",2137,873,196
Church Ave,"Church Av (2,5)",25,No,Brooklyn,Kings County,40.650843,-73.949575,No,No,No,No,No,"{'latitude': '40.650843', 'longitude': '-73.949575'}",2090,810,894
Houston St,Houston St (1),1,No,Manhattan,New York County,40.728251,-74.005367,No,No,Yes,No,No,"{'latitude': '40.728251', 'longitude': '-74.005367'}",2095,738,749
Broadway-Nassau,"Fulton St (J,M,Z,2,3,4,5)/Bway-Nassau St (A,C)",AC,No,Manhattan,New York County,40.710197,-74.007691,No,Yes,Yes,Yes,Yes,"{'latitude': '40.710197', 'longitude': '-74.007691'}",2095,797,749
Times Square,"Times Sq-42 St (N,Q,R,S,W,1,2,3,7)/42 St (A,C,E)",NQR,Yes,Manhattan,New York County,40.754672,-73.986754,No,Yes,Yes,Yes,Yes,"{'latitude': '40.754672', 'longitude': '-73.986754'}",2095,741,749
Fulton St Trn. Ctr.,"Fulton St (J,M,Z,2,3,4,5)/Bway-Nassau St (A,C)",ACJMZ2345,No,Manhattan,New York County,40.71417,-73.999153,No,Yes,Yes,Yes,Yes,"{'latitude': '40.71417', 'longitude': '-73.999153'}",2095,797,749
Brooklyn Bridge,"Chambers St (J,M,Z)/Bklyn Bridge-City Hall (4,5,6)",456,Yes,Manhattan,New York County,40.713065,-74.004131,No,No,Yes,No,No,"{'latitude': '40.713065', 'longitude': '-74.004131'}",2095,723,749
Northern Blvd,"Northern Blvd (M,R)",MR,No,Queens,Queens County,40.752885,-73.906006,No,Yes,Yes,Yes,Yes,"{'latitude': '40.752885', 'longitude': '-73.906006'}",2137,846,196
Canal St (UL),"Canal St (J,M,N,Q,R,Z,6)",NQR,No,Manhattan,New York County,40.719527,-74.001775,No,No,Yes,No,No,"{'latitude': '40.719527', 'longitude': '-74.001775'}",2095,737,749
116th St,116 St-Columbia University (1),1,Yes,Manhattan,New York County,40.807722,-73.96411,No,Yes,Yes,Yes,Yes,"{'latitude': '40.807722', 'longitude': '-73.96411'}",2095,754,749
Metropolitan Ave,Metropolitan Av (G)/Lorimer St (L),G,No,Brooklyn,Kings County,40.712792,-73.951418,No,Yes,Yes,No,Yes,"{'latitude': '40.712792', 'longitude': '-73.951418'}",2090,889,894
96th St,"96 St (1,2,3)",123,No,Manhattan,New York County,40.793919,-73.972323,No,Yes,Yes,Yes,Yes,"{'latitude': '40.793919', 'longitude': '-73.972323'}",2095,752,749
Court Square,23 St-Ely Av (E)/Long Island City-Court Sq (G),G,No,Queens,Queens County,40.746554,-73.943832,No,Yes,Yes,Yes,Yes,"{'latitude': '40.746554', 'longitude': '-73.943832'}",2137,873,196
Winthrop St,"Winthrop St (2,5)",25,No,Brooklyn,Kings County,40.656652,-73.9502,No,No,No,No,No,"{'latitude': '40.656652', 'longitude': '-73.9502'}",2090,809,894
Classon Ave,Classon Av (G),G,No,Brooklyn,Kings County,40.688873,-73.96007,No,No,No,No,No,"{'latitude': '40.688873', 'longitude': '-73.96007'}",2090,821,894
Delancey St,"Delancey St (F)/Essex St (J,M,Z)",F,No,Manhattan,New York County,40.718611,-73.988114,No,Yes,Yes,Yes,Yes,"{'latitude': '40.718611', 'longitude': '-73.988114'}",2095,718,749
Nostrand Ave,Nostrand Av (3),3,No,Brooklyn,Kings County,40.669847,-73.950466,No,No,No,No,No,"{'latitude': '40.669847', 'longitude': '-73.950466'}",2090,809,894
Myrtle Ave,"Myrtle-Wyckoff Avs (L,M)",L,No,Brooklyn,Kings County,40.699814,-73.911586,No,No,No,No,No,"{'latitude': '40.699814', 'longitude': '-73.911586'}",2090,820,894
23rd St,23 St (1),1,No,Manhattan,New York County,40.744081,-73.995657,No,Yes,Yes,Yes,Yes,"{'latitude': '40.744081', 'longitude': '-73.995657'}",2095,735,749
67th Ave,"67 Av (M,R)",MR,No,Queens,Queens County,40.726523,-73.852719,No,Yes,Yes,Yes,Yes,"{'latitude': '40.726523', 'longitude': '-73.852719'}",2137,845,196
34th St,"34 St-Herald Square (B,D,F,M,N,Q,R)",BDFM,No,Manhattan,New York County,40.749719,-73.987823,No,Yes,Yes,Yes,Yes,"{'latitude': '40.749719', 'longitude': '-73.987823'}",2095,717,749
Borough Hall,"Court St (M,R)/Borough Hall (2,3,4,5)",45,No,Brooklyn,Kings County,40.693219,-73.989998,No,No,No,No,No,"{'latitude': '40.693219', 'longitude': '-73.989998'}",2090,880,894
Christopher St,Christopher St-Sheridan Sq (1),1,No,Manhattan,New York County,40.733422,-74.002906,No,No,Yes,No,No,"{'latitude': '40.733422', 'longitude': '-74.002906'}",2095,738,749
Grand Central,"Grand Central-42 St (S,4,5,6,7)",456,No,Manhattan,New York County,40.751776,-73.976848,No,Yes,Yes,Yes,Yes,"{'latitude': '40.751776', 'longitude': '-73.976848'}",2095,590,749
Wall St,"Wall St (2,3)",23,No,Manhattan,New York County,40.706821,-74.0091,No,No,Yes,No,No,"{'latitude': '40.706821', 'longitude': '-74.0091'}",2095,721,749
7th Ave,"7 Av (B,Q)",BQ,No,Brooklyn,Kings County,40.67705,-73.972367,No,No,No,No,No,"{'latitude': '40.67705', 'longitude': '-73.972367'}",2090,895,894
9th St,"4 Av (F)/9 St (M,R)",MR,No,Brooklyn,Kings County,40.670847,-73.988302,No,No,No,No,No,"{'latitude': '40.670847', 'longitude': '-73.988302'}",2090,893,894
149th St,"149 St-Grand Concourse (2,4,5)",4,No,Bronx,Bronx County,40.818375,-73.927351,No,Yes,Yes,Yes,Yes,"{'latitude': '40.818375', 'longitude': '-73.927351'}",2095,647,307
75th Ave,"75 Av (E,F)",EF,No,Queens,Queens County,40.718331,-73.837324,No,Yes,Yes,Yes,Yes,"{'latitude': '40.718331', 'longitude': '-73.837324'}",2137,845,196
Chambers St,"Chambers St-WTC (A,C,E)/Park Pl (2,3)",AC,No,Manhattan,New York County,40.714111,-74.008585,No,No,Yes,No,No,"{'latitude': '40.714111', 'longitude': '-74.008585'}",2095,723,749
149th St-3rd Ave,"3 Av-149 St (2,5)",25,No,Bronx,Bronx County,40.816109,-73.917757,No,Yes,Yes,No,Yes,"{'latitude': '40.816109', 'longitude': '-73.917757'}",2032,651,307
Canal St,Canal St (1),1,No,Manhattan,New York County,40.722854,-74.006277,No,No,Yes,No,No,"{'latitude': '40.722854', 'longitude': '-74.006277'}",2095,737,749
Utica Ave,"Crown Heights-Utica Av (3,4)",34,No,Brooklyn,Kings County,40.668897,-73.932942,No,No,No,No,No,"{'latitude': '40.668897', 'longitude': '-73.932942'}",2090,891,894
57th St,57 St (F),F,No,Manhattan,New York County,40.763971,-73.977451,No,Yes,Yes,Yes,Yes,"{'latitude': '40.763971', 'longitude': '-73.977451'}",2095,742,749
190th St,190 St (A),AC,Yes,Manhattan,New York County,40.859022,-73.93418,No,Yes,Yes,Yes,Yes,"{'latitude': '40.859022', 'longitude': '-73.93418'}",2095,799,749
Elmhurst Ave,"Elmhurst Av (M,R)",MR,Yes,Queens,Queens County,40.742454,-73.882017,No,Yes,Yes,Yes,Yes,"{'latitude': '40.742454', 'longitude': '-73.882017'}",2137,843,196
Lawrence St,"Lawrence St (M,R)",MR,No,Brooklyn,Kings County,40.69218,-73.985942,No,No,No,No,No,"{'latitude': '40.69218', 'longitude': '-73.985942'}",2090,880,894
148th St,Harlem-148 St (3),3,No,Manhattan,New York County,40.82388,-73.93647,No,Yes,Yes,Yes,Yes,"{'latitude': '40.82388', 'longitude': '-73.93647'}",2095,798,749
59th St,"59 St-Columbus Circle (A,B,C,D,1)",1,Yes,Manhattan,New York County,40.768247,-73.981929,No,Yes,Yes,Yes,Yes,"{'latitude': '40.768247', 'longitude': '-73.981929'}",2095,742,749
72 St,72 St (Q),Q,No,Manhattan,New York County,40.768775,-73.958386,No,No,No,No,No,"{'latitude': '40.768775', 'longitude': '-73.958386'}",2095,744,749
Canal St,"Canal St (J,M,N,Q,R,Z,6)",6,No,Manhattan,New York County,40.718803,-74.000193,No,No,Yes,No,No,"{'latitude': '40.718803', 'longitude': '-74.000193'}",2095,737,749
Chambers St,"Chambers St (1,2,3)",123,Yes,Manhattan,New York County,40.715478,-74.009266,No,No,Yes,No,No,"{'latitude': '40.715478', 'longitude': '-74.009266'}",2095,723,749
Van Wyck Blvd,"Briarwood-Van Wyck Blvd (E,F)",EF,No,Queens,Queens County,40.709179,-73.820574,No,Yes,Yes,Yes,Yes,"{'latitude': '40.709179', 'longitude': '-73.820574'}",2137,1162,196
Flathbush Ave,"Brooklyn College-Flatbush Av (2,5)",25,No,Brooklyn,Kings County,40.632836,-73.947642,No,No,No,No,No,"{'latitude': '40.632836', 'longitude': '-73.947642'}",2090,888,894
42nd St,"Times Sq-42 St (N,Q,R,S,W,1,2,3,7)/42 St (A,C,E)",ACE,No,Manhattan,New York County,40.757308,-73.989735,No,Yes,Yes,Yes,Yes,"{'latitude': '40.757308', 'longitude': '-73.989735'}",2095,795,749
7th Ave,7 Av (F),F,No,Brooklyn,New York County,40.666271,-73.980305,No,No,No,No,No,"{'latitude': '40.666271', 'longitude': '-73.980305'}",2090,893,894
Franklin Ave,"Franklin Av (2,3,4,5)/Botanic Garden (S)",2345,No,Brooklyn,Kings County,40.670682,-73.958131,No,No,No,No,No,"{'latitude': '40.670682', 'longitude': '-73.958131'}",2090,809,894
Grand Central,"Grand Central-42 St (S,4,5,6,7)",S,No,Manhattan,New York County,40.752769,-73.979189,No,Yes,Yes,Yes,Yes,"{'latitude': '40.752769', 'longitude': '-73.979189'}",2095,740,749
Whitehall St,Whitehall St (R),R,No,Manhattan,New York County,40.703087,-74.012994,No,No,No,No,No,"{'latitude': '40.703087', 'longitude': '-74.012994'}",2095,720,749
155th St,155 St (C),C,No,Manhattan,New York County,40.830518,-73.941514,No,Yes,Yes,Yes,Yes,"{'latitude': '40.830518', 'longitude': '-73.941514'}",2095,791,749
Canal St (LL),"Canal St (J,M,N,Q,R,Z,6)",NQR,No,Manhattan,New York County,40.718383,-74.00046,No,No,Yes,No,No,"{'latitude': '40.718383', 'longitude': '-74.00046'}",2095,737,749
86th St,"86 St (B,C)",BC,No,Manhattan,New York County,40.785868,-73.968916,No,Yes,Yes,Yes,Yes,"{'latitude': '40.785868', 'longitude': '-73.968916'}",2095,,749
Parsons Blvd,"Jamaica Center-Parsons-Archer (E,J,Z)",EJZ,No,Queens,Queens County,40.702147,-73.801109,No,Yes,Yes,Yes,Yes,"{'latitude': '40.702147', 'longitude': '-73.801109'}",2137,1216,196
110th St,110 St (6),6,No,Manhattan,New York County,40.79502,-73.94425,No,Yes,Yes,Yes,Yes,"{'latitude': '40.79502', 'longitude': '-73.94425'}",2095,756,749
Franklin St,Franklin St (1),1,No,Manhattan,New York County,40.719318,-74.006886,No,No,Yes,No,No,"{'latitude': '40.719318', 'longitude': '-74.006886'}",2095,737,749
5th Ave,"42 St-Bryant Pk (B,D,F,M)/5 Av (7)",7,No,Manhattan,New York County,40.753821,-73.981963,No,Yes,Yes,Yes,Yes,"{'latitude': '40.753821', 'longitude': '-73.981963'}",2095,795,749
Rector St,Rector St (R),R,No,Manhattan,New York County,40.70722,-74.013342,No,No,Yes,No,No,"{'latitude': '40.70722', 'longitude': '-74.013342'}",2095,722,749
77th St,77 St (6),6,No,Manhattan,New York County,40.77362,-73.959874,No,Yes,Yes,Yes,Yes,"{'latitude': '40.77362', 'longitude': '-73.959874'}",2095,744,749
95th St/Bay Ridge,Bay Ridge-95 St (R),R,No,Brooklyn,Kings County,40.616622,-74.030876,No,No,No,No,No,"{'latitude': '40.616622', 'longitude': '-74.030876'}",2090,887,894
Lexington Ave,Lexington Av-63 St (F),F,No,Manhattan,New York County,40.76463,-73.966115,No,No,No,No,No,"{'latitude': '40.76463', 'longitude': '-73.966115'}",2095,,749
Bushwick Ave,Bushwick Av-Aberdeen St (L),L,No,Brooklyn,Kings County,40.682829,-73.905249,No,No,No,No,No,"{'latitude': '40.682829', 'longitude': '-73.905249'}",2090,885,894
181st St.,181 St (1),1,Yes,Manhattan,New York County,40.849505,-73.933596,No,No,No,No,No,"{'latitude': '40.849505', 'longitude': '-73.933596'}",2095,792,749
South Ferry,South Ferry (1),1,No,Manhattan,New York County,40.701542,-74.013506,No,No,No,No,No,"{'latitude': '40.701542', 'longitude': '-74.013506'}",2095,720,749
96th St,"96 St (B,C)",BC,No,Manhattan,New York County,40.791644,-73.964694,No,Yes,Yes,Yes,Yes,"{'latitude': '40.791644', 'longitude': '-73.964694'}",2095,,749
Jamaica-Van Wyck,Jamaica-Van Wyck (E),E,No,Queens,Queens County,40.702566,-73.816859,No,Yes,Yes,Yes,Yes,"{'latitude': '40.702566', 'longitude': '-73.816859'}",2137,1165,196
Court St.,"Court St (M,R)/Borough Hall (2,3,4,5)",MR,No,Brooklyn,Kings County,40.6941,-73.991777,No,No,No,No,No,"{'latitude': '40.6941', 'longitude': '-73.991777'}",2090,880,894
Lorimer St,Metropolitan Av (G)/Lorimer St (L),L,No,Brooklyn,Kings County,40.714063,-73.950275,No,Yes,Yes,No,Yes,"{'latitude': '40.714063', 'longitude': '-73.950275'}",2090,889,894
170th St,"170 St (B,D)",BD,No,Bronx,Bronx County,40.839306,-73.9134,No,Yes,Yes,Yes,Yes,"{'latitude': '40.839306', 'longitude': '-73.9134'}",2032,652,307
63rd Drive,"63 Dr-Rego Park (M,R)",MR,No,Queens,Queens County,40.729846,-73.861604,No,Yes,Yes,Yes,Yes,"{'latitude': '40.729846', 'longitude': '-73.861604'}",2137,844,196
71st Ave,"Forest Hills-71 Av (E,F,M,R)",EFMR,No,Queens,Queens County,40.721691,-73.844521,No,Yes,Yes,Yes,Yes,"{'latitude': '40.721691', 'longitude': '-73.844521'}",2137,845,196
21st St/Van Alst Ave,21 St (G),G,No,Queens,Queens County,40.744065,-73.949724,No,Yes,Yes,Yes,Yes,"{'latitude': '40.744065', 'longitude': '-73.949724'}",2137,873,196
Broadway,Broadway (G),G,No,Brooklyn,Kings County,40.706092,-73.950308,No,No,No,No,No,"{'latitude': '40.706092', 'longitude': '-73.950308'}",2090,884,894
Union Square,"14 St-Union Square (L,N,Q,R,4,5,6)",NQR,Yes,Manhattan,New York County,40.735736,-73.990568,No,No,No,No,No,"{'latitude': '40.735736', 'longitude': '-73.990568'}",2095,719,749
Grand Central,"Grand Central-42 St (S,4,5,6,7)",7,No,Manhattan,New York County,40.751431,-73.976041,No,Yes,Yes,Yes,Yes,"{'latitude': '40.751431', 'longitude': '-73.976041'}",2095,740,749
72nd St,"72 St (B,C)",BC,No,Manhattan,New York County,40.775594,-73.97641,No,Yes,Yes,Yes,Yes,"{'latitude': '40.775594', 'longitude': '-73.97641'}",2095,,749
14th St/Union Square,"14 St-Union Square (L,N,Q,R,4,5,6)",456,Yes,Manhattan,New York County,40.734673,-73.989951,No,No,No,No,No,"{'latitude': '40.734673', 'longitude': '-73.989951'}",2095,719,749
5th Ave,5 Av-53 St (E),E,No,Manhattan,New York County,40.760167,-73.975224,No,Yes,Yes,Yes,Yes,"{'latitude': '40.760167', 'longitude': '-73.975224'}",2095,749,749
51st St,Lexington Av-53 St (E)/51 St (6),6,No,Manhattan,New York County,40.757107,-73.97192,No,Yes,Yes,No,Yes,"{'latitude': '40.757107', 'longitude': '-73.97192'}",2095,749,749
23 St,"23 St (C,E)",CE,No,Manhattan,New York County,40.745906,-73.998041,No,Yes,Yes,Yes,Yes,"{'latitude': '40.745906', 'longitude': '-73.998041'}",2095,735,749
Lafayette Ave,Lafayette Av (C),AC,No,Brooklyn,Kings County,40.686113,-73.973946,No,No,No,No,No,"{'latitude': '40.686113', 'longitude': '-73.973946'}",2090,895,894
23rd St,"23 St (N,R,W)",R,No,Manhattan,New York County,40.741303,-73.989344,No,Yes,Yes,Yes,Yes,"{'latitude': '40.741303', 'longitude': '-73.989344'}",2095,734,749
Cortland St,Cortland St,1,No,Manhattan,New York County,40.711835,-74.012188,No,No,No,No,No,"{'latitude': '40.711835', 'longitude': '-74.012188'}",2095,722,749
Flushing Ave,Flushing Av (G),G,No,Brooklyn,Kings County,40.700377,-73.950234,No,No,No,No,No,"{'latitude': '40.700377', 'longitude': '-73.950234'}",2090,884,894
Grand Army Plaza,"Grand Army Plaza (2,3)",23,No,Brooklyn,Kings County,40.675235,-73.971046,No,No,No,No,No,"{'latitude': '40.675235', 'longitude': '-73.971046'}",2090,821,894
81st St,"81 St-Museum of Natural History (B,C)",BC,No,Manhattan,New York County,40.781433,-73.972143,No,Yes,Yes,Yes,Yes,"{'latitude': '40.781433', 'longitude': '-73.972143'}",2095,,749
Brooklyn Museum-Eastern Pkwy,"Eastern Pkwy-Brooklyn Museum (2,3)",23,No,Brooklyn,Kings County,40.671987,-73.964375,No,No,No,No,No,"{'latitude': '40.671987', 'longitude': '-73.964375'}",2090,821,894
Bedford Park Blvd,"Bedford Park Blvd (B,D)",BD,No,Bronx,Bronx County,40.873244,-73.887138,No,Yes,Yes,Yes,Yes,"{'latitude': '40.873244', 'longitude': '-73.887138'}",2032,654,307
50th St,"50 St (C,E)",CE,No,Manhattan,New York County,40.762456,-73.985984,No,Yes,Yes,Yes,Yes,"{'latitude': '40.762456', 'longitude': '-73.985984'}",2095,742,749
Prospect Ave,"Prospect Av (M,R)",MR,No,Brooklyn,Kings County,40.665414,-73.992872,No,No,No,No,No,"{'latitude': '40.665414', 'longitude': '-73.992872'}",2090,893,894
East 143rd St,East 143 St-St Mary's St (6),6,No,Bronx,Bronx County,40.808719,-73.907657,No,Yes,Yes,Yes,Yes,"{'latitude': '40.808719', 'longitude': '-73.907657'}",2032,650,307
Fulton St,"Fulton St (J,M,Z,2,3,4,5)/Bway-Nassau St (A,C)",45,Yes,Manhattan,New York County,40.710368,-74.009509,No,Yes,Yes,Yes,Yes,"{'latitude': '40.710368', 'longitude': '-74.009509'}",2095,723,749
Ely Ave-23rd,23 St-Ely Av (E)/Long Island City-Court Sq (G),EM,No,Queens,Queens County,40.747846,-73.946,No,Yes,Yes,Yes,Yes,"{'latitude': '40.747846', 'longitude': '-73.946'}",2137,873,196
103rd St,"103 St (B,C)",BC,No,Manhattan,New York County,40.796092,-73.961454,No,Yes,Yes,Yes,Yes,"{'latitude': '40.796092', 'longitude': '-73.961454'}",2095,,749
Rockaway Ave,Rockaway Av (C),AC,No,Brooklyn,Kings County,40.67834,-73.911946,No,No,No,No,No,"{'latitude': '40.67834', 'longitude': '-73.911946'}",2090,816,894
Park Place,"Chambers St-WTC (A,C,E)/Park Pl (2,3)",23,No,Manhattan,New York County,40.713051,-74.008811,No,No,Yes,No,No,"{'latitude': '40.713051', 'longitude': '-74.008811'}",2095,601,749
116th St,"116 St (B,C)",BC,No,Manhattan,New York County,40.805085,-73.954882,No,Yes,Yes,Yes,Yes,"{'latitude': '40.805085', 'longitude': '-73.954882'}",2095,753,749
103rd St,103 St (1),1,No,Manhattan,New York County,40.799446,-73.968379,No,Yes,Yes,Yes,Yes,"{'latitude': '40.799446', 'longitude': '-73.968379'}",2095,752,749
Myrtle-Willoughby,Myrtle-Willoughby Avs (G),G,No,Brooklyn,Kings County,40.694568,-73.949046,No,No,No,No,No,"{'latitude': '40.694568', 'longitude': '-73.949046'}",2090,884,894
Cortland St,"Cortlandt St (R,W)",R,No,Manhattan,New York County,40.710688,-74.011029,No,Yes,Yes,Yes,Yes,"{'latitude': '40.710688', 'longitude': '-74.011029'}",2095,723,749
Shepherd Ave,Shepherd Av (C),AC,No,Brooklyn,Kings County,40.67413,-73.88075,No,No,No,No,No,"{'latitude': '40.67413', 'longitude': '-73.88075'}",2137,886,894
53rd St,53 St (R),R,No,Brooklyn,Kings County,40.645069,-74.014034,No,No,No,No,No,"{'latitude': '40.645069', 'longitude': '-74.014034'}",2090,899,894
86th St,86 St (R),R,No,Brooklyn,Kings County,40.622687,-74.028398,No,No,No,No,No,"{'latitude': '40.622687', 'longitude': '-74.028398'}",2090,887,894
18th St,18 St (1),1,No,Manhattan,New York County,40.74104,-73.997871,No,Yes,Yes,Yes,Yes,"{'latitude': '40.74104', 'longitude': '-73.997871'}",2095,735,749
Van Siclen Ave,Van Siclen Av (C),AC,No,Brooklyn,Kings County,40.67271,-73.890358,No,No,No,No,No,"{'latitude': '40.67271', 'longitude': '-73.890358'}",2090,885,894
6 Av,"6 Av & 14 St (1,2,3,F,M,L)",L,No,Manhattan,New York County,40.737335,-73.996786,No,Yes,Yes,Yes,Yes,"{'latitude': '40.737335', 'longitude': '-73.996786'}",2095,735,749
Hoyt-Schermerhorn,"Hoyt-Schermerhorn Sts (A,C,G)",AC,No,Brooklyn,Kings County,40.688484,-73.985001,No,No,No,No,No,"{'latitude': '40.688484', 'longitude': '-73.985001'}",2090,880,894
137th St,137 St-City College (1),1,No,Manhattan,New York County,40.822008,-73.953676,No,Yes,Yes,Yes,Yes,"{'latitude': '40.822008', 'longitude': '-73.953676'}",2095,758,749
Newkirk Ave,"Newkirk Av (2,5)",25,No,Brooklyn,Kings County,40.639967,-73.948411,No,No,No,No,No,"{'latitude': '40.639967', 'longitude': '-73.948411'}",2090,888,894
Main St.,Flushing-Main St (7),7,Yes,Queens,Queens County,40.7596,-73.83003,No,Yes,Yes,Yes,Yes,"{'latitude': '40.7596', 'longitude': '-73.83003'}",2137,824,196
8th st,"8 St-New York University (N,R)",R,No,Manhattan,New York County,40.730328,-73.992629,No,No,Yes,No,No,"{'latitude': '40.730328', 'longitude': '-73.992629'}",2095,719,749
86 St,86 St (Q),Q,No,Manhattan,New York County,40.777925,-73.951753,No,No,No,No,No,"{'latitude': '40.777925', 'longitude': '-73.951753'}",2095,583,749
169th St,169 St (F),F,No,Queens,Queens County,40.71047,-73.793604,No,Yes,Yes,Yes,Yes,"{'latitude': '40.71047', 'longitude': '-73.793604'}",2137,1216,196
Union St,"Union St (M,R)",MR,No,Brooklyn,Kings County,40.677316,-73.98311,No,No,No,No,No,"{'latitude': '40.677316', 'longitude': '-73.98311'}",2090,893,894
Kingston Ave,Kingston Av (3),3,No,Brooklyn,Kings County,40.669399,-73.942161,No,No,No,No,No,"{'latitude': '40.669399', 'longitude': '-73.942161'}",2090,891,894
Prince St,"Prince St (N,R)",R,No,Manhattan,New York County,40.724329,-73.997702,No,No,Yes,No,No,"{'latitude': '40.724329', 'longitude': '-73.997702'}",2095,736,749
Morgan Ave,Morgan Av (L),L,No,Brooklyn,Kings County,40.706152,-73.933147,No,No,No,No,No,"{'latitude': '40.706152', 'longitude': '-73.933147'}",2090,884,894
Euclid Ave,"Euclid Av (A,C)",AC,No,Brooklyn,Kings County,40.675377,-73.872106,No,No,No,No,No,"{'latitude': '40.675377', 'longitude': '-73.872106'}",2137,886,894
Parsons Blvd,Parsons Blvd (F),F,No,Queens,Queens County,40.707564,-73.803326,No,Yes,Yes,Yes,Yes,"{'latitude': '40.707564', 'longitude': '-73.803326'}",2137,1216,196
179th St,Jamaica-179 St (F),F,No,Queens,Queens County,40.712646,-73.783817,No,Yes,Yes,Yes,Yes,"{'latitude': '40.712646', 'longitude': '-73.783817'}",2137,1216,196
Wilson Ave,Wilson Av (L),L,Yes,Brooklyn,Kings County,40.688764,-73.904046,No,No,No,No,No,"{'latitude': '40.688764', 'longitude': '-73.904046'}",2090,885,894
Wall St,"Wall St (4,5)",45,Yes,Manhattan,New York County,40.707557,-74.011862,No,No,Yes,No,No,"{'latitude': '40.707557', 'longitude': '-74.011862'}",2095,721,749
Graham Ave,Graham Av (L),L,No,Brooklyn,Kings County,40.714565,-73.944053,No,Yes,Yes,No,Yes,"{'latitude': '40.714565', 'longitude': '-73.944053'}",2090,889,894
167th St,"167 St (B,D)",BD,No,Bronx,Bronx County,40.833773,-73.918438,No,Yes,Yes,Yes,Yes,"{'latitude': '40.833773', 'longitude': '-73.918438'}",2032,648,307
Kingston-Throop,Kingston-Throop Avs (C),AC,No,Brooklyn,Kings County,40.679921,-73.940859,No,No,No,No,No,"{'latitude': '40.679921', 'longitude': '-73.940859'}",2090,891,894
7th Ave,"7 Av (B,D,E)",BDE,No,Manhattan,New York County,40.762862,-73.981637,No,Yes,Yes,Yes,Yes,"{'latitude': '40.762862', 'longitude': '-73.981637'}",2095,742,749
Atlantic Ave,"Atlantic Av (B,Q,2,3,4,5)/Pacific St (D,M,N,R)",BQ,Yes,Brooklyn,Kings County,40.68446,-73.97689,No,No,No,No,No,"{'latitude': '40.68446', 'longitude': '-73.97689'}",2090,895,894
Franklin Ave,"Franklin Av (C,S)",AC,No,Brooklyn,Kings County,40.68138,-73.956848,No,No,No,No,No,"{'latitude': '40.68138', 'longitude': '-73.956848'}",2090,821,894
Broadway-ENY,"Broadway Junction (A,C,J,L,Z)",AC,No,Brooklyn,Kings County,40.678334,-73.905316,No,No,No,No,No,"{'latitude': '40.678334', 'longitude': '-73.905316'}",2090,816,894
Atlantic Ave,"Atlantic Av (B,Q,2,3,4,5)/Pacific St (D,M,N,R)",2345,No,Brooklyn,Kings County,40.684359,-73.977666,No,No,No,No,No,"{'latitude': '40.684359', 'longitude': '-73.977666'}",2090,895,894
79th St,79 St (1),1,Yes,Manhattan,New York County,40.783934,-73.979917,No,Yes,Yes,Yes,Yes,"{'latitude': '40.783934', 'longitude': '-73.979917'}",2095,751,749
Kingbridge Rd,"Kingsbridge Rd (B,D)",BD,No,Bronx,Bronx County,40.866978,-73.893509,No,Yes,Yes,Yes,Yes,"{'latitude': '40.866978', 'longitude': '-73.893509'}",2032,654,307
Tremont Ave,"Tremont Av (B,D)",BD,No,Bronx,Bronx County,40.85041,-73.905227,No,Yes,Yes,Yes,Yes,"{'latitude': '40.85041', 'longitude': '-73.905227'}",2032,653,307
Bleecker St,"Broadway-Lafayette St (B,D,F)/Bleecker St (6)",6,Yes,Manhattan,New York County,40.725915,-73.994659,No,No,Yes,No,No,"{'latitude': '40.725915', 'longitude': '-73.994659'}",2095,736,749
Lexington Ave,"Lexington Av (N,R,W)/59 St (4,5,6)",NR,No,Manhattan,New York County,40.76266,-73.967258,No,Yes,Yes,Yes,Yes,"{'latitude': '40.76266', 'longitude': '-73.967258'}",2095,749,749
135th St,"135 St (2,3)",23,No,Manhattan,New York County,40.814229,-73.94077,No,Yes,Yes,Yes,Yes,"{'latitude': '40.814229', 'longitude': '-73.94077'}",2095,796,749
Grant Ave,Grant Av (A),A,No,Brooklyn,Kings County,40.677044,-73.86505,No,No,No,No,No,"{'latitude': '40.677044', 'longitude': '-73.86505'}",2137,886,894
Beverly Road,"Beverly Rd (2,5)",25,No,Brooklyn,Kings County,40.645098,-73.948959,No,No,No,No,No,"{'latitude': '40.645098', 'longitude': '-73.948959'}",2090,810,894
Fulton St,"Fulton St (J,M,Z,2,3,4,5)/Bway-Nassau St (A,C)",JMZ,No,Manhattan,New York County,40.710374,-74.007582,No,Yes,Yes,Yes,Yes,"{'latitude': '40.710374', 'longitude': '-74.007582'}",2095,797,749
33rd St,33 St (6),6,Yes,Manhattan,New York County,40.746081,-73.982076,No,Yes,Yes,Yes,Yes,"{'latitude': '40.746081', 'longitude': '-73.982076'}",2095,739,749
City Hall,City Hall (R),R,No,Manhattan,New York County,40.713282,-74.006978,No,No,Yes,No,No,"{'latitude': '40.713282', 'longitude': '-74.006978'}",2095,723,749
8 Av,"8 Av & 14 St (A,C,E,L)",L,No,Manhattan,New York County,40.739777,-74.002578,No,Yes,Yes,Yes,Yes,"{'latitude': '40.739777', 'longitude': '-74.002578'}",2095,735,749
125th St,"125 St (2,3)",23,No,Manhattan,New York County,40.807745,-73.945502,No,Yes,Yes,Yes,Yes,"{'latitude': '40.807745', 'longitude': '-73.945502'}",2095,754,749
42nd St,"42 St-Bryant Pk (B,D,F)/5 Av (7)",BDFM,No,Manhattan,New York County,40.754222,-73.984569,No,Yes,Yes,Yes,Yes,"{'latitude': '40.754222', 'longitude': '-73.984569'}",2095,795,749
Dekalb Ave,DeKalb Av (L),L,No,Brooklyn,Kings County,40.703811,-73.918425,No,No,No,No,No,"{'latitude': '40.703811', 'longitude': '-73.918425'}",2090,820,894
Roosevelt Island,Roosevelt Island (F),F,No,Queens,Queens County,40.759145,-73.95326,No,No,No,No,No,"{'latitude': '40.759145', 'longitude': '-73.95326'}",2095,800,749
Nevins,"Nevins St (2,3,4,5)",2345,No,Brooklyn,Kings County,40.688246,-73.980492,No,No,No,No,No,"{'latitude': '40.688246', 'longitude': '-73.980492'}",2090,895,894
103rd St,103 St (6),6,No,Manhattan,New York County,40.7906,-73.947478,No,Yes,Yes,Yes,Yes,"{'latitude': '40.7906', 'longitude': '-73.947478'}",2095,756,749
36th St,"36 St (D,M,N,R)",DMNR,No,Brooklyn,Kings County,40.655144,-74.003549,No,No,No,No,No,"{'latitude': '40.655144', 'longitude': '-74.003549'}",2090,815,894
Dyckman St,Dyckman St (A),A,No,Manhattan,New York County,40.865491,-73.927271,No,Yes,Yes,Yes,Yes,"{'latitude': '40.865491', 'longitude': '-73.927271'}",2095,793,749
125th St,"125 St (A,B,C,D)",ABCD,No,Manhattan,New York County,40.811109,-73.952343,No,Yes,Yes,Yes,Yes,"{'latitude': '40.811109', 'longitude': '-73.952343'}",2095,754,749
21st St,21 St-Queensbridge (F),F,No,Queens,Queens County,40.754203,-73.942836,No,Yes,Yes,Yes,Yes,"{'latitude': '40.754203', 'longitude': '-73.942836'}",2137,873,196
Brook Avenue,Brook Av (6),6,No,Bronx,Bronx County,40.807566,-73.91924,No,Yes,Yes,Yes,Yes,"{'latitude': '40.807566', 'longitude': '-73.91924'}",2095,650,307
Bowling Green,"Bowling Green (4,5)",45,Yes,Manhattan,New York County,40.704817,-74.014065,No,No,No,No,No,"{'latitude': '40.704817', 'longitude': '-74.014065'}",2095,720,749
5th Ave,"5 Av-59 St (N,R,W)",NR,No,Manhattan,New York County,40.764811,-73.973347,No,Yes,Yes,Yes,Yes,"{'latitude': '40.764811', 'longitude': '-73.973347'}",2095,,749
Spring St,Spring St (6),6,No,Manhattan,New York County,40.722301,-73.997141,No,No,Yes,No,No,"{'latitude': '40.722301', 'longitude': '-73.997141'}",2095,736,749
34th St,"34 St-Herald Square (B,D,F,M,N,Q,R)",NQR,No,Manhattan,New York County,40.749567,-73.98795,No,Yes,Yes,Yes,Yes,"{'latitude': '40.749567', 'longitude': '-73.98795'}",2095,717,749
Clinton &. Washindton,Clinton-Washington Avs (C),AC,No,Brooklyn,Kings County,40.683263,-73.965838,No,No,No,No,No,"{'latitude': '40.683263', 'longitude': '-73.965838'}",2090,821,894
34th St,"34 St-Penn Station (A,C,E)",ACE,No,Manhattan,New York County,40.752287,-73.993391,No,No,No,No,No,"{'latitude': '40.752287', 'longitude': '-73.993391'}",2095,717,749
25th St,"25 St (M,R)",MR,No,Brooklyn,Kings County,40.660397,-73.998091,No,No,No,No,No,"{'latitude': '40.660397', 'longitude': '-73.998091'}",2090,815,894
110th St/Central Park N,"Central Park North-110 St (2,3)",23,No,Manhattan,New York County,40.799075,-73.951822,No,Yes,Yes,Yes,Yes,"{'latitude': '40.799075', 'longitude': '-73.951822'}",2095,753,749
110thSt,"Cathedral Pkwy-110 St (B,C)",BC,No,Manhattan,New York County,40.800605,-73.958159,No,Yes,Yes,Yes,Yes,"{'latitude': '40.800605', 'longitude': '-73.958159'}",2095,753,749
Chambers St,"Chambers St (J,M,Z)/Bklyn Bridge-City Hall (4,5,6)",JMZ,Yes,Manhattan,New York County,40.713243,-74.003401,No,No,Yes,No,No,"{'latitude': '40.713243', 'longitude': '-74.003401'}",2095,723,749
World Trade Center,World Trade Center,E,No,Manhattan,New York County,40.712582,-74.009781,No,No,Yes,No,No,"{'latitude': '40.712582', 'longitude': '-74.009781'}",2095,723,749
161st St,"161 St-Yankee Stadium (B,D,4)",BD,No,Bronx,Bronx County,40.827905,-73.925651,No,Yes,Yes,Yes,Yes,"{'latitude': '40.827905', 'longitude': '-73.925651'}",2032,647,307
Sutphin Blvd,Sutphin Blvd (F),F,No,Queens,Queens County,40.70546,-73.810708,No,Yes,Yes,Yes,Yes,"{'latitude': '40.70546', 'longitude': '-73.810708'}",2137,1262,196
Liberty Ave,Liberty Av (C),AC,No,Brooklyn,Kings County,40.674542,-73.896548,No,No,No,No,No,"{'latitude': '40.674542', 'longitude': '-73.896548'}",2090,885,894
Bergen St,"Bergen St (2,3)",23,No,Brooklyn,Kings County,40.680829,-73.975098,No,No,No,No,No,"{'latitude': '40.680829', 'longitude': '-73.975098'}",2090,895,894
Bay Ridge Ave,Bay Ridge Av (R),R,No,Brooklyn,Kings County,40.634967,-74.023377,No,No,No,No,No,"{'latitude': '40.634967', 'longitude': '-74.023377'}",2090,899,894
155th St,"155 St (B,D)",BD,No,Manhattan,New York County,40.830135,-73.938209,No,Yes,Yes,Yes,Yes,"{'latitude': '40.830135', 'longitude': '-73.938209'}",2095,798,749
Sterling St,"Sterling St (2,5)",25,No,Brooklyn,Kings County,40.662742,-73.95085,No,No,No,No,No,"{'latitude': '40.662742', 'longitude': '-73.95085'}",2090,809,894
157th St,157 St (1),1,No,Manhattan,New York County,40.834041,-73.94489,No,Yes,Yes,Yes,Yes,"{'latitude': '40.834041', 'longitude': '-73.94489'}",2095,791,749
14 St,"6 Av & 14 St (1,2,3,F,M,L)",123,No,Manhattan,New York County,40.737826,-74.000201,No,Yes,Yes,Yes,Yes,"{'latitude': '40.737826', 'longitude': '-74.000201'}",2095,735,749
168th St-Broadway,"168 St-Washington Heights (A,C,1)",1,Yes,Manhattan,New York County,40.840556,-73.940133,No,No,No,No,No,"{'latitude': '40.840556', 'longitude': '-73.940133'}",2095,791,749
Bergen St,"Bergen St (F,G)",FG,No,Brooklyn,Kings County,40.686145,-73.990862,No,No,No,No,No,"{'latitude': '40.686145', 'longitude': '-73.990862'}",2090,880,894
Times Square,"Times Sq-42 St (N,Q,R,S,W,1,2,3,7)/42 St (A,C,E)",7,Yes,Manhattan,New York County,40.755477,-73.987691,No,Yes,Yes,Yes,Yes,"{'latitude': '40.755477', 'longitude': '-73.987691'}",2095,741,749
